ASTROCAST-0402          
1 55109U 23001DE  26068.80661100  .00010930  00000+0  41835-3 0  9996
2 55109  97.5556 160.6821 0004209 216.6984 143.3966 15.26734153129364
STARLINK-30346          
1 57704U 23129G   26068.15051516  .00000797  00000+0  39428-4 0  9998
2 57704  43.0061 120.6543 0001882 251.8694 108.1953 15.26732251140460
